<?xml version='1.0' encoding='utf-8'?>
<gpx xmlns="http://www.topografix.com/GPX/1/1" xmlns:ha="https://www.home-assistant.io/ns/gpx" xmlns:xsi="http://www.w3.org/2001/XMLSchema-instance" version="1.1" creator="Home Assistant track export" xsi:schemaLocation="http://www.topografix.com/GPX/1/1 http://www.topografix.com/GPX/1/1/gpx.xsd"><metadata><name>Sailing on Lake Starnberg — 2026-09-06</name><time>2026-09-06T11:24:54.689Z</time></metadata><trk><name>Starnberger See sailing — 2026-09-06</name><type>sailing</type><trkseg><trkpt lat="47.8451702" lon="11.3380445"><time>2026-09-06T11:24:54.689Z</time><extensions><ha:gps_accuracy_m>10</ha:gps_accuracy_m></extensions></trkpt><trkpt lat="47.8452225" lon="11.3364846"><time>2026-09-06T11:30:55.102Z</time><extensions><ha:gps_accuracy_m>13</ha:gps_accuracy_m></extensions></trkpt><trkpt lat="47.8443636" lon="11.3329876"><time>2026-09-06T11:33:55.146Z</time><extensions><ha:gps_accuracy_m>6</ha:gps_accuracy_m></extensions></trkpt><trkpt lat="47.8454868" lon="11.3291198"><time>2026-09-06T11:36:55.065Z</time><extensions><ha:gps_accuracy_m>5</ha:gps_accuracy_m></extensions></trkpt><trkpt lat="47.8487759" lon="11.3331106"><time>2026-09-06T11:39:55.149Z</time><extensions><ha:gps_accuracy_m>13</ha:gps_accuracy_m></extensions></trkpt><trkpt lat="47.8493543" lon="11.3276486"><time>2026-09-06T11:42:54.561Z</time><extensions><ha:gps_accuracy_m>7</ha:gps_accuracy_m></extensions></trkpt><trkpt lat="47.8492689" lon="11.3206072"><time>2026-09-06T11:45:54.876Z</time><extensions><ha:gps_accuracy_m>7</ha:gps_accuracy_m></extensions></trkpt><trkpt lat="47.8527881" lon="11.3224599"><time>2026-09-06T11:49:55.342Z</time><extensions><ha:gps_accuracy_m>6</ha:gps_accuracy_m></extensions></trkpt><trkpt lat="47.8585661" lon="11.3225088"><time>2026-09-06T12:00:54.955Z</time><extensions><ha:gps_accuracy_m>5</ha:gps_accuracy_m></extensions></trkpt><trkpt lat="47.8589426" lon="11.3163037"><time>2026-09-06T12:03:55.183Z</time><extensions><ha:gps_accuracy_m>5</ha:gps_accuracy_m></extensions></trkpt><trkpt lat="47.8582258" lon="11.3099453"><time>2026-09-06T12:06:55.061Z</time><extensions><ha:gps_accuracy_m>14</ha:gps_accuracy_m></extensions></trkpt><trkpt lat="47.8594435" lon="11.3098266"><time>2026-09-06T12:09:55.073Z</time><extensions><ha:gps_accuracy_m>15</ha:gps_accuracy_m></extensions></trkpt><trkpt lat="47.8603423" lon="11.3127165"><time>2026-09-06T12:12:55.555Z</time><extensions><ha:gps_accuracy_m>10</ha:gps_accuracy_m></extensions></trkpt><trkpt lat="47.8618423" lon="11.3190697"><time>2026-09-06T12:15:55.391Z</time><extensions><ha:gps_accuracy_m>5</ha:gps_accuracy_m></extensions></trkpt><trkpt lat="47.8629912" lon="11.3264046"><time>2026-09-06T12:18:54.927Z</time><extensions><ha:gps_accuracy_m>8</ha:gps_accuracy_m></extensions></trkpt><trkpt lat="47.8658865" lon="11.3237238"><time>2026-09-06T12:30:54.810Z</time><extensions><ha:gps_accuracy_m>9</ha:gps_accuracy_m></extensions></trkpt><trkpt lat="47.8653181" lon="11.3175443"><time>2026-09-06T12:33:55.227Z</time><extensions><ha:gps_accuracy_m>12</ha:gps_accuracy_m></extensions></trkpt><trkpt lat="47.8652971" lon="11.3148006"><time>2026-09-06T12:36:54.917Z</time><extensions><ha:gps_accuracy_m>9</ha:gps_accuracy_m></extensions></trkpt><trkpt lat="47.8656316" lon="11.3194673"><time>2026-09-06T12:39:55.355Z</time><extensions><ha:gps_accuracy_m>18</ha:gps_accuracy_m></extensions></trkpt><trkpt lat="47.8667017" lon="11.3236222"><time>2026-09-06T12:42:55.113Z</time><extensions><ha:gps_accuracy_m>5</ha:gps_accuracy_m></extensions></trkpt><trkpt lat="47.8679395" lon="11.3246878"><time>2026-09-06T12:44:13.763Z</time><extensions><ha:gps_accuracy_m>5</ha:gps_accuracy_m></extensions></trkpt><trkpt lat="47.8693052" lon="11.3258425"><time>2026-09-06T12:45:35.832Z</time><extensions><ha:gps_accuracy_m>5</ha:gps_accuracy_m></extensions></trkpt><trkpt lat="47.8695801" lon="11.3259965"><time>2026-09-06T12:45:51.504Z</time><extensions><ha:gps_accuracy_m>5</ha:gps_accuracy_m></extensions></trkpt><trkpt lat="47.8725442" lon="11.3275312"><time>2026-09-06T12:48:33.523Z</time><extensions><ha:gps_accuracy_m>5</ha:gps_accuracy_m></extensions></trkpt><trkpt lat="47.8743621" lon="11.3276657"><time>2026-09-06T12:51:15.722Z</time><extensions><ha:gps_accuracy_m>5</ha:gps_accuracy_m></extensions></trkpt><trkpt lat="47.8775979" lon="11.3288673"><time>2026-09-06T12:53:58.728Z</time><extensions><ha:gps_accuracy_m>5</ha:gps_accuracy_m></extensions></trkpt><trkpt lat="47.8798824" lon="11.3296439"><time>2026-09-06T12:56:40.514Z</time><extensions><ha:gps_accuracy_m>6</ha:gps_accuracy_m></extensions></trkpt><trkpt lat="47.8792946" lon="11.3250728"><time>2026-09-06T12:59:22.651Z</time><extensions><ha:gps_accuracy_m>6</ha:gps_accuracy_m></extensions></trkpt><trkpt lat="47.8788547" lon="11.3207077"><time>2026-09-06T13:01:51.455Z</time><extensions><ha:gps_accuracy_m>2</ha:gps_accuracy_m></extensions></trkpt><trkpt lat="47.8783278" lon="11.3179368"><time>2026-09-06T13:03:12.604Z</time><extensions><ha:gps_accuracy_m>2</ha:gps_accuracy_m></extensions></trkpt><trkpt lat="47.8780526" lon="11.3152465"><time>2026-09-06T13:04:34.507Z</time><extensions><ha:gps_accuracy_m>4</ha:gps_accuracy_m></extensions></trkpt><trkpt lat="47.8774614" lon="11.3108314"><time>2026-09-06T13:06:51.349Z</time><extensions><ha:gps_accuracy_m>4</ha:gps_accuracy_m></extensions></trkpt><trkpt lat="47.8772008" lon="11.3083376"><time>2026-09-06T13:08:13.833Z</time><extensions><ha:gps_accuracy_m>4</ha:gps_accuracy_m></extensions></trkpt><trkpt lat="47.8767973" lon="11.3057239"><time>2026-09-06T13:09:34.673Z</time><extensions><ha:gps_accuracy_m>5</ha:gps_accuracy_m></extensions></trkpt><trkpt lat="47.8763288" lon="11.3012506"><time>2026-09-06T13:11:51.485Z</time><extensions><ha:gps_accuracy_m>4</ha:gps_accuracy_m></extensions></trkpt><trkpt lat="47.8763531" lon="11.2996946"><time>2026-09-06T13:13:12.661Z</time><extensions><ha:gps_accuracy_m>7</ha:gps_accuracy_m></extensions></trkpt><trkpt lat="47.8771589" lon="11.3013787"><time>2026-09-06T13:14:34.648Z</time><extensions><ha:gps_accuracy_m>5</ha:gps_accuracy_m></extensions></trkpt><trkpt lat="47.8776321" lon="11.3058023"><time>2026-09-06T13:16:51.477Z</time><extensions><ha:gps_accuracy_m>5</ha:gps_accuracy_m></extensions></trkpt><trkpt lat="47.8774721" lon="11.3082582"><time>2026-09-06T13:18:13.746Z</time><extensions><ha:gps_accuracy_m>4</ha:gps_accuracy_m></extensions></trkpt><trkpt lat="47.8769943" lon="11.3107090"><time>2026-09-06T13:19:34.715Z</time><extensions><ha:gps_accuracy_m>5</ha:gps_accuracy_m></extensions></trkpt><trkpt lat="47.8762204" lon="11.3146566"><time>2026-09-06T13:21:51.352Z</time><extensions><ha:gps_accuracy_m>4</ha:gps_accuracy_m></extensions></trkpt><trkpt lat="47.8764220" lon="11.3167132"><time>2026-09-06T13:23:12.718Z</time><extensions><ha:gps_accuracy_m>5</ha:gps_accuracy_m></extensions></trkpt><trkpt lat="47.8777070" lon="11.3179166"><time>2026-09-06T13:24:33.806Z</time><extensions><ha:gps_accuracy_m>5</ha:gps_accuracy_m></extensions></trkpt><trkpt lat="47.8798373" lon="11.3196227"><time>2026-09-06T13:26:55.055Z</time><extensions><ha:gps_accuracy_m>8</ha:gps_accuracy_m></extensions></trkpt><trkpt lat="47.8818601" lon="11.3211080"><time>2026-09-06T13:29:07.616Z</time><extensions><ha:gps_accuracy_m>6</ha:gps_accuracy_m></extensions></trkpt><trkpt lat="47.8825547" lon="11.3218649"><time>2026-09-06T13:29:54.672Z</time><extensions><ha:gps_accuracy_m>6</ha:gps_accuracy_m></extensions></trkpt><trkpt lat="47.8851492" lon="11.3243860"><time>2026-09-06T13:32:37.673Z</time><extensions><ha:gps_accuracy_m>5</ha:gps_accuracy_m></extensions></trkpt><trkpt lat="47.8872216" lon="11.3264789"><time>2026-09-06T13:34:51.362Z</time><extensions><ha:gps_accuracy_m>5</ha:gps_accuracy_m></extensions></trkpt><trkpt lat="47.8882913" lon="11.3272349"><time>2026-09-06T13:36:13.651Z</time><extensions><ha:gps_accuracy_m>6</ha:gps_accuracy_m></extensions></trkpt><trkpt lat="47.8879615" lon="11.3250145"><time>2026-09-06T13:37:34.531Z</time><extensions><ha:gps_accuracy_m>5</ha:gps_accuracy_m></extensions></trkpt><trkpt lat="47.8875420" lon="11.3210023"><time>2026-09-06T13:39:51.340Z</time><extensions><ha:gps_accuracy_m>6</ha:gps_accuracy_m></extensions></trkpt><trkpt lat="47.8872734" lon="11.3185987"><time>2026-09-06T13:41:12.596Z</time><extensions><ha:gps_accuracy_m>6</ha:gps_accuracy_m></extensions></trkpt><trkpt lat="47.8870629" lon="11.3163569"><time>2026-09-06T13:42:34.707Z</time><extensions><ha:gps_accuracy_m>5</ha:gps_accuracy_m></extensions></trkpt><trkpt lat="47.8868917" lon="11.3132979"><time>2026-09-06T13:44:51.423Z</time><extensions><ha:gps_accuracy_m>5</ha:gps_accuracy_m></extensions></trkpt><trkpt lat="47.8876686" lon="11.3148705"><time>2026-09-06T13:46:13.653Z</time><extensions><ha:gps_accuracy_m>5</ha:gps_accuracy_m></extensions></trkpt><trkpt lat="47.8888118" lon="11.3163910"><time>2026-09-06T13:47:34.877Z</time><extensions><ha:gps_accuracy_m>5</ha:gps_accuracy_m></extensions></trkpt><trkpt lat="47.8903031" lon="11.3200722"><time>2026-09-06T13:49:51.403Z</time><extensions><ha:gps_accuracy_m>5</ha:gps_accuracy_m></extensions></trkpt><trkpt lat="47.8914731" lon="11.3217540"><time>2026-09-06T13:51:12.588Z</time><extensions><ha:gps_accuracy_m>5</ha:gps_accuracy_m></extensions></trkpt><trkpt lat="47.8927060" lon="11.3233731"><time>2026-09-06T13:52:34.572Z</time><extensions><ha:gps_accuracy_m>5</ha:gps_accuracy_m></extensions></trkpt><trkpt lat="47.8943200" lon="11.3276385"><time>2026-09-06T13:54:51.413Z</time><extensions><ha:gps_accuracy_m>6</ha:gps_accuracy_m></extensions></trkpt><trkpt lat="47.8950227" lon="11.3281789"><time>2026-09-06T13:56:13.833Z</time><extensions><ha:gps_accuracy_m>5</ha:gps_accuracy_m></extensions></trkpt><trkpt lat="47.8948353" lon="11.3252657"><time>2026-09-06T13:57:35.753Z</time><extensions><ha:gps_accuracy_m>5</ha:gps_accuracy_m></extensions></trkpt><trkpt lat="47.8948643" lon="11.3247466"><time>2026-09-06T13:57:51.495Z</time><extensions><ha:gps_accuracy_m>5</ha:gps_accuracy_m></extensions></trkpt><trkpt lat="47.8948846" lon="11.3191482"><time>2026-09-06T14:00:34.662Z</time><extensions><ha:gps_accuracy_m>5</ha:gps_accuracy_m></extensions></trkpt><trkpt lat="47.8952689" lon="11.3147003"><time>2026-09-06T14:02:51.364Z</time><extensions><ha:gps_accuracy_m>5</ha:gps_accuracy_m></extensions></trkpt><trkpt lat="47.8955225" lon="11.3125523"><time>2026-09-06T14:04:12.571Z</time><extensions><ha:gps_accuracy_m>6</ha:gps_accuracy_m></extensions></trkpt><trkpt lat="47.8963230" lon="11.3142275"><time>2026-09-06T14:05:33.658Z</time><extensions><ha:gps_accuracy_m>5</ha:gps_accuracy_m></extensions></trkpt><trkpt lat="47.8979543" lon="11.3165691"><time>2026-09-06T14:07:51.595Z</time><extensions><ha:gps_accuracy_m>5</ha:gps_accuracy_m></extensions></trkpt><trkpt lat="47.8988796" lon="11.3179424"><time>2026-09-06T14:09:13.557Z</time><extensions><ha:gps_accuracy_m>5</ha:gps_accuracy_m></extensions></trkpt><trkpt lat="47.8998551" lon="11.3196320"><time>2026-09-06T14:10:35.639Z</time><extensions><ha:gps_accuracy_m>5</ha:gps_accuracy_m></extensions></trkpt><trkpt lat="47.9000644" lon="11.3199289"><time>2026-09-06T14:10:51.628Z</time><extensions><ha:gps_accuracy_m>5</ha:gps_accuracy_m></extensions></trkpt><trkpt lat="47.9021958" lon="11.3229418"><time>2026-09-06T14:13:34.528Z</time><extensions><ha:gps_accuracy_m>6</ha:gps_accuracy_m></extensions></trkpt><trkpt lat="47.9031538" lon="11.3211344"><time>2026-09-06T14:15:51.445Z</time><extensions><ha:gps_accuracy_m>2</ha:gps_accuracy_m></extensions></trkpt><trkpt lat="47.9036157" lon="11.3188609"><time>2026-09-06T14:17:13.530Z</time><extensions><ha:gps_accuracy_m>5</ha:gps_accuracy_m></extensions></trkpt><trkpt lat="47.9040373" lon="11.3163046"><time>2026-09-06T14:18:34.529Z</time><extensions><ha:gps_accuracy_m>5</ha:gps_accuracy_m></extensions></trkpt><trkpt lat="47.9048850" lon="11.3121726"><time>2026-09-06T14:20:51.424Z</time><extensions><ha:gps_accuracy_m>5</ha:gps_accuracy_m></extensions></trkpt><trkpt lat="47.9052760" lon="11.3094022"><time>2026-09-06T14:22:12.644Z</time><extensions><ha:gps_accuracy_m>5</ha:gps_accuracy_m></extensions></trkpt><trkpt lat="47.9059055" lon="11.3068781"><time>2026-09-06T14:23:34.501Z</time><extensions><ha:gps_accuracy_m>5</ha:gps_accuracy_m></extensions></trkpt><trkpt lat="47.9068359" lon="11.3027332"><time>2026-09-06T14:25:51.395Z</time><extensions><ha:gps_accuracy_m>5</ha:gps_accuracy_m></extensions></trkpt><trkpt lat="47.9072973" lon="11.3004705"><time>2026-09-06T14:27:12.570Z</time><extensions><ha:gps_accuracy_m>2</ha:gps_accuracy_m></extensions></trkpt><trkpt lat="47.9074895" lon="11.2982626"><time>2026-09-06T14:28:34.675Z</time><extensions><ha:gps_accuracy_m>5</ha:gps_accuracy_m></extensions></trkpt><trkpt lat="47.9073535" lon="11.2983758"><time>2026-09-06T14:28:51.365Z</time><extensions><ha:gps_accuracy_m>7</ha:gps_accuracy_m></extensions></trkpt><trkpt lat="47.9058995" lon="11.3019112"><time>2026-09-06T14:31:33.732Z</time><extensions><ha:gps_accuracy_m>5</ha:gps_accuracy_m></extensions></trkpt><trkpt lat="47.9045670" lon="11.3047305"><time>2026-09-06T14:33:51.485Z</time><extensions><ha:gps_accuracy_m>6</ha:gps_accuracy_m></extensions></trkpt><trkpt lat="47.9037367" lon="11.3062240"><time>2026-09-06T14:35:13.608Z</time><extensions><ha:gps_accuracy_m>6</ha:gps_accuracy_m></extensions></trkpt><trkpt lat="47.9029756" lon="11.3073384"><time>2026-09-06T14:36:35.539Z</time><extensions><ha:gps_accuracy_m>6</ha:gps_accuracy_m></extensions></trkpt><trkpt lat="47.9015389" lon="11.3092260"><time>2026-09-06T14:38:51.371Z</time><extensions><ha:gps_accuracy_m>6</ha:gps_accuracy_m></extensions></trkpt><trkpt lat="47.9006245" lon="11.3104622"><time>2026-09-06T14:40:13.625Z</time><extensions><ha:gps_accuracy_m>6</ha:gps_accuracy_m></extensions></trkpt><trkpt lat="47.8996011" lon="11.3117157"><time>2026-09-06T14:41:35.575Z</time><extensions><ha:gps_accuracy_m>5</ha:gps_accuracy_m></extensions></trkpt><trkpt lat="47.8976168" lon="11.3125449"><time>2026-09-06T14:43:51.473Z</time><extensions><ha:gps_accuracy_m>5</ha:gps_accuracy_m></extensions></trkpt><trkpt lat="47.8962948" lon="11.3128560"><time>2026-09-06T14:45:12.542Z</time><extensions><ha:gps_accuracy_m>5</ha:gps_accuracy_m></extensions></trkpt><trkpt lat="47.8950509" lon="11.3133289"><time>2026-09-06T14:46:34.476Z</time><extensions><ha:gps_accuracy_m>5</ha:gps_accuracy_m></extensions></trkpt><trkpt lat="47.8931234" lon="11.3143227"><time>2026-09-06T14:48:52.869Z</time><extensions><ha:gps_accuracy_m>6</ha:gps_accuracy_m></extensions></trkpt><trkpt lat="47.8919461" lon="11.3148424"><time>2026-09-06T14:50:12.752Z</time><extensions><ha:gps_accuracy_m>5</ha:gps_accuracy_m></extensions></trkpt><trkpt lat="47.8907535" lon="11.3152625"><time>2026-09-06T14:51:34.513Z</time><extensions><ha:gps_accuracy_m>5</ha:gps_accuracy_m></extensions></trkpt><trkpt lat="47.8904814" lon="11.3153616"><time>2026-09-06T14:51:51.385Z</time><extensions><ha:gps_accuracy_m>5</ha:gps_accuracy_m></extensions></trkpt><trkpt lat="47.8879238" lon="11.3160217"><time>2026-09-06T14:54:34.684Z</time><extensions><ha:gps_accuracy_m>5</ha:gps_accuracy_m></extensions></trkpt><trkpt lat="47.8861130" lon="11.3166846"><time>2026-09-06T14:56:51.433Z</time><extensions><ha:gps_accuracy_m>5</ha:gps_accuracy_m></extensions></trkpt><trkpt lat="47.8848383" lon="11.3170454"><time>2026-09-06T14:58:13.464Z</time><extensions><ha:gps_accuracy_m>5</ha:gps_accuracy_m></extensions></trkpt><trkpt lat="47.8835029" lon="11.3173913"><time>2026-09-06T14:59:34.388Z</time><extensions><ha:gps_accuracy_m>6</ha:gps_accuracy_m></extensions></trkpt><trkpt lat="47.8811349" lon="11.3179418"><time>2026-09-06T15:01:51.511Z</time><extensions><ha:gps_accuracy_m>5</ha:gps_accuracy_m></extensions></trkpt><trkpt lat="47.8797971" lon="11.3181713"><time>2026-09-06T15:03:13.740Z</time><extensions><ha:gps_accuracy_m>5</ha:gps_accuracy_m></extensions></trkpt><trkpt lat="47.8784345" lon="11.3184985"><time>2026-09-06T15:04:35.568Z</time><extensions><ha:gps_accuracy_m>5</ha:gps_accuracy_m></extensions></trkpt><trkpt lat="47.8781524" lon="11.3185801"><time>2026-09-06T15:04:51.361Z</time><extensions><ha:gps_accuracy_m>5</ha:gps_accuracy_m></extensions></trkpt><trkpt lat="47.8755054" lon="11.3193832"><time>2026-09-06T15:07:34.754Z</time><extensions><ha:gps_accuracy_m>5</ha:gps_accuracy_m></extensions></trkpt><trkpt lat="47.8734118" lon="11.3202391"><time>2026-09-06T15:09:51.345Z</time><extensions><ha:gps_accuracy_m>5</ha:gps_accuracy_m></extensions></trkpt><trkpt lat="47.8722466" lon="11.3206630"><time>2026-09-06T15:11:12.614Z</time><extensions><ha:gps_accuracy_m>5</ha:gps_accuracy_m></extensions></trkpt><trkpt lat="47.8711176" lon="11.3210356"><time>2026-09-06T15:12:33.716Z</time><extensions><ha:gps_accuracy_m>6</ha:gps_accuracy_m></extensions></trkpt><trkpt lat="47.8694337" lon="11.3216468"><time>2026-09-06T15:14:51.296Z</time><extensions><ha:gps_accuracy_m>4</ha:gps_accuracy_m></extensions></trkpt><trkpt lat="47.8684903" lon="11.3217164"><time>2026-09-06T15:16:12.468Z</time><extensions><ha:gps_accuracy_m>6</ha:gps_accuracy_m></extensions></trkpt><trkpt lat="47.8676192" lon="11.3217209"><time>2026-09-06T15:17:33.472Z</time><extensions><ha:gps_accuracy_m>5</ha:gps_accuracy_m></extensions></trkpt><trkpt lat="47.8656792" lon="11.3217461"><time>2026-09-06T15:19:51.452Z</time><extensions><ha:gps_accuracy_m>5</ha:gps_accuracy_m></extensions></trkpt><trkpt lat="47.8648698" lon="11.3224120"><time>2026-09-06T15:21:13.488Z</time><extensions><ha:gps_accuracy_m>5</ha:gps_accuracy_m></extensions></trkpt><trkpt lat="47.8640834" lon="11.3231984"><time>2026-09-06T15:22:35.446Z</time><extensions><ha:gps_accuracy_m>9</ha:gps_accuracy_m></extensions></trkpt><trkpt lat="47.8623284" lon="11.3246483"><time>2026-09-06T15:24:51.353Z</time><extensions><ha:gps_accuracy_m>4</ha:gps_accuracy_m></extensions></trkpt><trkpt lat="47.8609219" lon="11.3255361"><time>2026-09-06T15:26:12.610Z</time><extensions><ha:gps_accuracy_m>5</ha:gps_accuracy_m></extensions></trkpt><trkpt lat="47.8595111" lon="11.3263129"><time>2026-09-06T15:27:33.766Z</time><extensions><ha:gps_accuracy_m>5</ha:gps_accuracy_m></extensions></trkpt><trkpt lat="47.8568824" lon="11.3273799"><time>2026-09-06T15:29:52.370Z</time><extensions><ha:gps_accuracy_m>5</ha:gps_accuracy_m></extensions></trkpt><trkpt lat="47.8555901" lon="11.3275942"><time>2026-09-06T15:31:13.673Z</time><extensions><ha:gps_accuracy_m>4</ha:gps_accuracy_m></extensions></trkpt><trkpt lat="47.8543668" lon="11.3277667"><time>2026-09-06T15:32:35.686Z</time><extensions><ha:gps_accuracy_m>4</ha:gps_accuracy_m></extensions></trkpt><trkpt lat="47.8529642" lon="11.3282293"><time>2026-09-06T15:34:52.891Z</time><extensions><ha:gps_accuracy_m>6</ha:gps_accuracy_m></extensions></trkpt><trkpt lat="47.8521946" lon="11.3290688"><time>2026-09-06T15:36:14.607Z</time><extensions><ha:gps_accuracy_m>4</ha:gps_accuracy_m></extensions></trkpt><trkpt lat="47.8509836" lon="11.3301536"><time>2026-09-06T15:37:35.578Z</time><extensions><ha:gps_accuracy_m>4</ha:gps_accuracy_m></extensions></trkpt><trkpt lat="47.8508225" lon="11.3303489"><time>2026-09-06T15:37:52.514Z</time><extensions><ha:gps_accuracy_m>5</ha:gps_accuracy_m></extensions></trkpt><trkpt lat="47.8510851" lon="11.3297833"><time>2026-09-06T15:40:52.456Z</time><extensions><ha:gps_accuracy_m>10</ha:gps_accuracy_m></extensions></trkpt><trkpt lat="47.8511242" lon="11.3295531"><time>2026-09-06T15:41:56.564Z</time><extensions><ha:gps_accuracy_m>4</ha:gps_accuracy_m></extensions></trkpt><trkpt lat="47.8494536" lon="11.3303769"><time>2026-09-06T15:45:54.997Z</time><extensions><ha:gps_accuracy_m>9</ha:gps_accuracy_m></extensions></trkpt><trkpt lat="47.8463442" lon="11.3346010"><time>2026-09-06T15:48:56.384Z</time><extensions><ha:gps_accuracy_m>12</ha:gps_accuracy_m></extensions></trkpt><trkpt lat="47.8459512" lon="11.3359327"><time>2026-09-06T15:51:56.126Z</time><extensions><ha:gps_accuracy_m>6</ha:gps_accuracy_m></extensions></trkpt><trkpt lat="47.8452806" lon="11.3376550"><time>2026-09-06T15:54:56.319Z</time><extensions><ha:gps_accuracy_m>12</ha:gps_accuracy_m></extensions></trkpt><trkpt lat="47.8450940" lon="11.3383016"><time>2026-09-06T16:00:52.372Z</time><extensions><ha:gps_accuracy_m>3</ha:gps_accuracy_m></extensions></trkpt></trkseg></trk></gpx>